Name,Street,City,State,Zip Code,Phone Number
Cafe Madeleine,300 California St Fl Grnd1,San Francisco ,CA,94104,(415) 362-3332
Peet's Coffee & Tea,2139 Polk St,San Francisco ,CA,94109,(415) 474-1871
Cafe Claude,7 Claude Ln,San Francisco ,CA,94108,(415) 392-3505
Pacific Cafe,7000 Geary Blvd,San Francisco ,CA,94121,(415) 387-7091
Cafe Tiramisu,28 Belden Pl,San Francisco ,CA,94104,(415) 421-7044
Zuni Cafe,1658 Market St,San Francisco ,CA,94102,(415) 552-2522
Pork Store Cafe,1451 Haight St,San Francisco ,CA,94117,(415) 864-6981
Blue Light Cafe,1979 Union St,San Francisco ,CA,94123,(415) 922-5510
Chaat Cafe,320 3rd St,San Francisco ,CA,94107,(415) 979-9946
Nook,1500 Hyde St,San Francisco ,CA,94109,(415) 447-4100
Stella Pastry Cafe,446 Columbus Ave,San Francisco ,CA,94133,(415) 986-2914
Chloe's Cafe,1399 Church St,San Francisco ,CA,94114,(415) 648-4116
Cafe Jacqueline,1454 Grant Ave,San Francisco ,CA,94133,(415) 981-5565
Caffe Delucchi,500 Columbus Ave,San Francisco ,CA,94133,(415) 393-4515
Rose's Cafe,2298 Union St,San Francisco ,CA,94123,(415) 775-2200
Primo Patio Cafe,214 Townsend St,San Francisco ,CA,94107,(415) 957-1129
Universal Cafe,2814 19th St,San Francisco ,CA,94110,(415) 821-4608
Farleys,1315 18th St,San Francisco ,CA,94107,(415) 648-1545
Sea Breeze Cafe,3940 Judah St,San Francisco ,CA,94122,(415) 242-6022
Dolores Park Cafe,501 Dolores St,San Francisco ,CA,94110,(415) 621-2936
Just for You,732 22nd St,San Francisco ,CA,94107,(415) 647-3033
Brick House Cafe,426 Brannan St,San Francisco ,CA,94107,(415) 369-0222
Cafe XO,1799 Church St,San Francisco ,CA,94131,(415) 826-3535
Blue Bottle Coffee,"1 Ferry Building, #7",San Francisco ,CA,94111,(510) 653-3394
Trattoria Volare Caffe,561 Columbus Ave,San Francisco ,CA,94133,(415) 362-2774
Four Barrel Coffee,375 Valencia St,San Francisco ,CA,94103,(415) 252-0800
Nob Hill Cafe,1152 Taylor St,San Francisco ,CA,94108,(415) 776-6500
Cafe Capriccio,2200 Mason St,San Francisco ,CA,94133,(415) 772-0937
Cafe Flore,2298 Market St,San Francisco ,CA,94114,(415) 621-8579
People's Cafe,1419 Haight St,San Francisco ,CA,94117,(415) 553-8842
Michelangelo Cafe,579 Columbus Ave,San Francisco ,CA,94133,(415) 986-4058
Pescatore,2455 Mason St,San Francisco ,CA,94133,(415) 561-1111
Caffe Roma,526 Columbus Ave,San Francisco ,CA,94133,(415) 296-7942
Fillmore Bakeshop,1890 Fillmore St,San Francisco ,CA,94115,(415) 923-0711
Luv A Java,1300 Dolores St,San Francisco ,CA,94110,(415) 401-6444
Columbus Cafe,562 Green St,San Francisco ,CA,94133,(949) 212-8434
Mario's Bohemian Cigar Store Cafe,566 Columbus Ave,San Francisco ,CA,94133,(415) 362-0536
Jade Cafe,1688 Bryant St,San Francisco ,CA,94103,(415) 552-3899
Blue Danube,306 Clement St,San Francisco ,CA,94118,(415) 221-9041
Starbucks Coffee,1231 Market St,San Francisco ,CA,94103,(415) 522-1438
Caffe Puccini,411 Columbus Ave,San Francisco ,CA,94133,(415) 989-7033
Java Beach Cafe,1396 La Playa St,San Francisco ,CA,94122,(415) 665-5282
Curbside Cafe,2417 California St,San Francisco ,CA,94115,(415) 929-9030
Working Girls Cafe,101 Mission St Ste 140,San Francisco ,CA,94105,(415) 495-8985
Cafe De La Presse,352 Grant Ave,San Francisco ,CA,94108,(415) 398-2680
Mission Beach Cafe,198 Guerrero St,San Francisco ,CA,94103,(415) 861-0198
Wok Shop Cafe,1307 Sutter St,San Francisco ,CA,94109,(415) 771-2142
Metro Caffe,247 Fillmore St,San Francisco ,CA,94117,(415) 621-9536
Blue Front Deli & Cafe,1430 Haight St,San Francisco ,CA,94117,(415) 252-5917
Caffe Sport,574 Green St,San Francisco ,CA,94133,(415) 981-1251
Philz Coffee,3101 24th St,San Francisco ,CA,94110,(415) 875-9370
Caffe Delle Stelle,395 Hayes St,San Francisco ,CA,94102,(415) 252-1110
Eagle Cafe,39 Pier Ste 201,San Francisco ,CA,94133,(415) 433-3689
Pat's Cafe,2330 Taylor St,San Francisco ,CA,94133,(415) 776-8735
Caffe Macaroni,59 Columbus Ave,San Francisco ,CA,94111,(415) 956-9737
Judy's Cafe,2268 Chestnut St,San Francisco ,CA,94123,(415) 922-4588
Red's Java House,Pier 30,San Francisco ,CA,94105,(415) 777-5626
Piccino Cafe,1001 Minnesota St,San Francisco ,CA,94107,(415) 824-4224
Honey Honey Cafe & Crepery,597 Post St,San Francisco ,CA,94102,(415) 351-2423
New Taraval Cafe,1054 Taraval St,San Francisco ,CA,94116,(415) 731-3816
Starbucks Coffee,201 3rd St,San Francisco ,CA,94103,(415) 644-0072
New Taraval Cafe,1054 Taraval St,San Francisco ,CA,94116,(415) 731-3816
Angelina's Catering,6000 California St,San Francisco ,CA,94121,(415) 221-7801
Outerlands,4001 Judah St,San Francisco ,CA,94122,(415) 661-6140
Eddie's Cafe,800 Divisadero St,San Francisco ,CA,94117,(415) 563-9780
Atlas Cafe,3049 20th St,San Francisco ,CA,94110,(415) 648-1047
Lori's Diner,900 N Point St,San Francisco ,CA,94109,(415) 409-1950
Quetzal Internet Cafe,1234 Polk St,San Francisco ,CA,94109,(415) 673-4181
D & A Cafe,407 Clement St,San Francisco ,CA,94118,(415) 668-7882
Howard's,1309 9th Ave,San Francisco ,CA,94122,(415) 564-4723
Cafe Mums,1800 Sutter St,San Francisco ,CA,94115,(415) 931-6986
Orphan Andy's Restaurant,3991 17th St,San Francisco ,CA,94114,(415) 864-9795
Philz Coffee,748 Van Ness Ave,San Francisco ,CA,94102,(415) 292-7660
Caffe Sapore,790 Lombard St,San Francisco ,CA,94133,(415) 474-1222
Caffe D Melanio,1314 Ocean Ave,San Francisco ,CA,94112,(415) 333-3665
Cafe' Coton,210 Grant Ave,San Francisco ,CA,94108,(415) 837-0937
B Star,127 Clement St,San Francisco ,CA,94118,(415) 933-9900
Muddy Water Coffee,521 Valencia St,San Francisco ,CA,94110,(415) 863-8006
Hollywood Cafe,530 N Point St,San Francisco ,CA,94133,(415) 563-3779
Cole Valley Cafe,701 Cole St,San Francisco ,CA,94117,(415) 668-5282
South Beach Cafe,800 The Embarcadero,San Francisco ,CA,94107,(415) 974-1115
Cafe Mason,320 Mason St,San Francisco ,CA,94102,(415) 544-0320
Roxanne Cafe,570 Powell St,San Francisco ,CA,94108,(415) 989-5555
Loving Cup,2356 Polk St,San Francisco ,CA,94109,(415) 440-6900
San Francisco Soup Company,845 Market St Ste 410,San Francisco ,CA,94103,(415) 896-1239
Cafe De Soleil,200 Fillmore St,San Francisco ,CA,94117,(415) 934-8637
The Cove Sf,434 Castro St,San Francisco ,CA,94114,(415) 626-0462
Murata's Cafe Hana,1737 Post St Ste 368,San Francisco ,CA,94115,(415) 567-9133
Caffe Cozzolino,300 Precita Ave,San Francisco ,CA,94110,(415) 285-6005
Far East Cafe,631 Grant Ave,San Francisco ,CA,94108,(415) 982-3245
Mings Coffee Shop,641 Mission St,San Francisco ,CA,94105,(415) 227-4798
Boulange,2310 Polk St,San Francisco ,CA,94109,(415) 345-1107
Rain Tree Cafe,654 Irving St,San Francisco ,CA,94122,(415) 665-3633
Brain Wash Cafe and Laundromat,1122 Folsom St,San Francisco ,CA,94103,(415) 861-3663
Harvest & Rowe Inc,55 2nd St Ste 150,San Francisco ,CA,94105,(415) 541-7771
Crepe O'chocolate,75 Ofarrell St,San Francisco ,CA,94108,(415) 362-0255
Beanery Inc,1307 9th Ave,San Francisco ,CA,94122,(415) 661-1255
The Grind,783 Haight St,San Francisco ,CA,94117,(415) 864-0955
Matching Half,1799 Mcallister St,San Francisco ,CA,94115,(415) 674-8699
Caffe Ambrosia,14 Trinity Pl,San Francisco ,CA,94104,(415) 362-0538
La Trappe,800 Greenwich St,San Francisco ,CA,94133,(415) 440-8727
Darren's Cafe,2731 Taylor St,San Francisco ,CA,94133,(415) 673-3345
Bittersweet The Chocolate Cafe,2123 Fillmore St,San Francisco ,CA,94115,(415) 346-8715
V Cafe,1525 Folsom St,San Francisco ,CA,94103,(415) 863-3620
Persimmon Cafe,582 Sutter St,San Francisco ,CA,94102,(415) 433-5525
Manor Coffee Shop,321 W Portal Ave,San Francisco ,CA,94127,(415) 661-2468
St. Francis Fountain,2801 24th St,San Francisco ,CA,94110,(415) 826-4210
Cafico Cafe & Bakery,1475 Market St,San Francisco ,CA,94103,(415) 552-4449
Cafe Madeleine,43 Ofarrell St,San Francisco ,CA,94108,(415) 362-1713
Hard Knox Cafe,2448 Clement St,San Francisco ,CA,94121,(415) 752-3770
Melt,700 Columbus Ave,San Francisco ,CA,94133,(415) 392-9290
Art's Cafe,747 Irving St,San Francisco ,CA,94122,(415) 665-7440
Starbucks Coffee,7 3rd St,San Francisco ,CA,94103,(415) 979-9530
Working Girls' Cafe,259 Kearny St,San Francisco ,CA,94108,(415) 398-1390
Moonlight Cafe,634 Cortland Ave,San Francisco ,CA,94110,(415) 647-6448
Queens Louisiana Po'boy Cafe,3030 San Bruno Ave,San Francisco ,CA,94134,(415) 656-0711
Caffe Trieste,1667 Market St,San Francisco ,CA,94103,(415) 551-1000
Starbucks Coffee,5455 Geary Blvd,San Francisco ,CA,94121,(415) 386-8813
Mo'z Cafe,36 5th St,San Francisco ,CA,94103,(415) 777-1080
Olympic Flame Cafe,555 Geary St,San Francisco ,CA,94102,(415) 885-0984
Epicenter Cafe,764 Harrison St,San Francisco ,CA,94107,(415) 543-5436
Ming's Diner,2129 Taraval St,San Francisco ,CA,94116,(415) 242-0811
Squat & Gobble Cafe,3600 16th St,San Francisco ,CA,94114,(415) 552-2125
Bean There,201 Steiner St,San Francisco ,CA,94117,(415) 255-8855
Pearls - International Beverages,329 W Portal Ave,San Francisco ,CA,94127,(415) 566-5832
Starbucks Coffee,2132 Chestnut St,San Francisco ,CA,94123,(415) 673-6781
Progressive Grounds,400 Cortland Ave,San Francisco ,CA,94110,(415) 282-6233
Revolution Cafe,3248 22nd St,San Francisco ,CA,94110,(415) 642-0474
Bread and Cocoa,199 Sutter St,San Francisco ,CA,94104,(415) 956-7200
Spike's Coffee & Tea,4117 19th St,San Francisco ,CA,94114,(415) 626-5573
Starbucks Coffee,1 Letterman Dr Bldg C,San Francisco ,CA,94129,(415) 441-1740
Wicked Grounds,289 8th St,San Francisco ,CA,94103,(415) 503-0405
Caffe Centro,102 S Park St,San Francisco ,CA,94107,(415) 882-1500
The Soap Box Cafe,1800 Hyde St,San Francisco ,CA,94109,(415) 829-7139
Cafe Bean,800 Sutter St,San Francisco ,CA,94109,(415) 928-0888
Contraband Coffee Bar,1415 Larkin St,San Francisco ,CA,94109,(415) 839-7388
Cafe Dolci,740 Market St,San Francisco ,CA,94102,(415) 392-9222
Castro Tarts,564 Castro St,San Francisco ,CA,94114,(415) 861-3268
Notes From Underground,2399 Van Ness Ave,San Francisco ,CA,94109,(415) 775-7638
Jump Start Coffee & Grocery,1192 Guerrero St,San Francisco ,CA,94110,(415) 642-7555
Reverie Coffee Cafe,848 Cole St,San Francisco ,CA,94117,(415) 242-0200
Beacon Coffee & Pantry,805 Columbus Ave,San Francisco ,CA,94133,(415) 814-2551
Cafeto,111 Richland Ave,San Francisco ,CA,94110,(415) 970-9090
Trouble Coffee Co,2543 43rd Ave,San Francisco ,CA,94116,(415) 682-4732
Yoogo Gelato,601 Broadway,San Francisco ,CA,94133,(415) 398-2996
Philz Coffee,1300 Potrero Ave,San Francisco ,CA,94110,(415) 834-5933
Jebena,990 Polk St,San Francisco ,CA,94109,(415) 409-1200
Hoang Dat Coffee Shop,930 Geary St,San Francisco ,CA,94109,(415) 923-5254
Nile Cafe,544 Jones St,San Francisco ,CA,94102,(415) 409-1000
Belly Good Cafe & Crepes,1737 Post St Ste 393,San Francisco ,CA,94115,(415) 346-8383
Mojo Bicycle Cafe,639 Divisadero St,San Francisco ,CA,94117,(415) 440-2338
Heirloom Cafe,2500 Folsom St,San Francisco ,CA,94110,(415) 821-2500
Pazzia Caffe and Trattoria,337 3rd St,San Francisco ,CA,94107,(415) 512-1693
Fida's Cafe,350 California St Lbby 2,San Francisco ,CA,94104,(415) 362-2782
Morning Brew Coffee & Tea,401 Sansome St,San Francisco ,CA,94111,(415) 986-4206
Caffe Union,1830 Union St,San Francisco ,CA,94123,(415) 673-4119
Cafe Lombard,1424 Lombard St,San Francisco ,CA,94123,(415) 292-6300
Cafe Golo,1602 Lombard St,San Francisco ,CA,94123,(415) 673-4656
Fresh Bay Cafe,3659 Buchanan St,San Francisco ,CA,94123,(415) 928-8868
Little Vietnam Cafe,309 6th Ave,San Francisco ,CA,94118,(415) 876-0283
Acre Cafe,1013 Lincoln Way,San Francisco ,CA,94122,(415) 561-2273
Cafe La Flore,1032 Clement St,San Francisco ,CA,94118,(415) 386-2814
Joe's Coffee Shop,6134 Geary Blvd,San Francisco ,CA,94121,(415) 668-9382
G Cube Cafe,1626 Taraval St,San Francisco ,CA,94116,(415) 682-4578
Java Beach At The Zoo,2650 Sloat Blvd,San Francisco ,CA,94116,(415) 731-2965
Splash Cafe and Restaurant,750 Ellis St,San Francisco ,CA,94109,(415) 829-7114
Chestnut Diner,1312 Chestnut St,San Francisco ,CA,94123,(415) 441-1168
La Promenade Cafe,3643 Balboa St,San Francisco ,CA,94121,(415) 340-3912
Starbucks Coffee,490 Brannan St,San Francisco ,CA,94107,(415) 974-5926
Starbucks Coffee,201 Spear St Ste 100,San Francisco ,CA,94105,(415) 974-5077
Starbucks Coffee,675 Portola Dr,San Francisco ,CA,94127,(415) 682-9477
Starbucks Coffee,100 W Portal Ave,San Francisco ,CA,94127,(415) 664-8370
Java Supreme,703 Guerrero St,San Francisco ,CA,94110,(415) 206-1832
Sacred Grounds,2095 Hayes St,San Francisco ,CA,94117,(415) 387-3859
New Village Cafe,1426 Polk St,San Francisco ,CA,94109,(415) 771-9598
La Boulange,1909 Union St,San Francisco ,CA,94123,(415) 738-0722
Cafe International,508 Haight St,San Francisco ,CA,94117,(415) 552-7390
Peet's Coffee & Tea,601 Van Ness Ave Ste A,San Francisco ,CA,94102,(415) 593-2661
Peet's Coffee & Tea,54 W Portal Ave,San Francisco ,CA,94127,(415) 731-0375
Starbucks Coffee,1390 Market St,San Francisco ,CA,94102,(415) 863-8332
Starbucks Coffee,2020 Market St,San Francisco ,CA,94114,(415) 431-5561
The Coffee Bean & Tea Leaf,773 Market St,San Francisco ,CA,94103,(415) 896-5029
Starbucks Coffee,1 Market Plz,San Francisco ,CA,94105,(415) 543-6345
Fountain Cafe,50 Post St Ste 62b,San Francisco ,CA,94104,(415) 981-3005
The Crepe Cafe,39 Pier Ste 181,San Francisco ,CA,94133,(415) 318-1494
Castro Coffee Company,427 Castro St,San Francisco ,CA,94114,(415) 552-6676
Peet's Coffee & Tea,692 Mission St,San Francisco ,CA,94105,(415) 593-8945
Latte Express 5,646 Kearny St,San Francisco ,CA,94108,(415) 296-8838
Sausalito Espresso,50 Beale St,San Francisco ,CA,94105,(415) 541-0400
Cafe Muse,785 8th Ave,San Francisco ,CA,94118,(415) 668-6873
Blue Bottle Coffee,1355 Market St,San Francisco ,CA,94103,(415) 660-2040
Han's Coffee Shop,900 Sutter St,San Francisco ,CA,94109,(415) 776-7875
Cafe Bellini,234 Powell St,San Francisco ,CA,94102,(415) 956-5101
Beanstalk Cafe,724 Bush St,San Francisco ,CA,94108,(415) 576-1966
Chaat Cafe Express,1 Montgomery St,San Francisco ,CA,94104,(415) 391-2082
Cafe Madeleine,149 New Montgomery St,San Francisco ,CA,94105,(415) 227-4077
Chatz Coffee,301 Arkansas St,San Francisco ,CA,94107,(415) 206-0300
Nani's Coffee,2739 Geary Blvd,San Francisco ,CA,94118,(415) 928-8817
Cafe Destijl,1 Union St,San Francisco ,CA,94111,(415) 291-0808
Garden House Cafe,3117 Clement St,San Francisco ,CA,94121,(415) 668-1640
Sutter Street Cafe,450 Sutter St,San Francisco ,CA,94108,(415) 362-8342
Caffe Bianco,39 Sutter St,San Francisco ,CA,94104,(415) 421-2091
Jo Jo's Cafe,1537 Ocean Ave,San Francisco ,CA,94112,(415) 452-9618
Rain Tree Cafe,118 W Portal Ave,San Francisco ,CA,94127,(415) 242-9000
Peet's Coffee & Tea,1 California St,San Francisco ,CA,94111,(415) 593-8960
Starbucks Coffee,123 Mission St,San Francisco ,CA,94105,(415) 543-1510
Starbucks Coffee,3595 California St,San Francisco ,CA,94118,(415) 387-2249
Sea Lion Cafe,39 Pier,San Francisco ,CA,94133,(415) 434-2260
Cafe Bunn Mi,417 Clement St,San Francisco ,CA,94118,(415) 668-8908
Rite Spot Cafe,2099 Folsom St,San Francisco ,CA,94110,(415) 552-6066
Mrs T's Cafe,809 Montgomery St,San Francisco ,CA,94133,(415) 982-6663
Starbucks Coffee,1501 Fillmore St,San Francisco ,CA,94115,(415) 441-7969
Starbucks Coffee,2165 Polk St,San Francisco ,CA,94109,(415) 921-1351
The Creek Cafe,968 Valencia St,San Francisco ,CA,94110,(415) 641-0888
Espresso Roma Cafe,3130 Fillmore St,San Francisco ,CA,94123,(415) 757-0477
Garage Cafe,320 11th St,San Francisco ,CA,94103,(415) 861-0888
Blue Bottle Coffee,66 Mint St,San Francisco ,CA,94103,(510) 653-3394
Coco Luxe,1673 Haight St,San Francisco ,CA,94117,(415) 367-4012
Tk Internet Cafe,2161 Irving St,San Francisco ,CA,94122,(415) 340-3580
Cup-A-Joe Coffee House,896 Sutter St,San Francisco ,CA,94109,(415) 563-7745
Peet's Coffee & Tea,1400 Mission St Apt 130,San Francisco ,CA,94103,(415) 610-4850
Peet's Coffee & Tea,555 9th St Ste B5,San Francisco ,CA,94103,(415) 593-0430
Peet's Coffee & Tea,2300 16th St Ste 240,San Francisco ,CA,94103,(415) 565-6713
Peet's Coffee & Tea,1400 Van Ness Ave,San Francisco ,CA,94109,(415) 230-7822
Starbucks Coffee,120 4th St,San Francisco ,CA,94103,(415) 284-0579
Peet's Coffee & Tea,310 Broderick St,San Francisco ,CA,94117,(415) 593-8830
Peet's Coffee & Tea,773 Market St,San Francisco ,CA,94103,(415) 530-2559
Starbucks Coffee,350 Rhode Island St,San Francisco ,CA,94103,(415) 864-6383
Peet's Coffee & Tea,370 4th St,San Francisco ,CA,94107,(415) 230-3091
Peet's Coffee & Tea,680 Mission St,San Francisco ,CA,94105,(415) 593-8945
Peet's Coffee & Tea,2197 Fillmore St,San Francisco ,CA,94115,(415) 563-9930
Starbucks Coffee,2222 Fillmore St,San Francisco ,CA,94115,(415) 673-3171
Starbucks Coffee,74 New Montgomery St,San Francisco ,CA,94105,(415) 284-0651
Starbucks Coffee,264 Kearny St,San Francisco ,CA,94108,(415) 788-1363
Peet's Coffee & Tea,595 Mission St,San Francisco ,CA,94105,(415) 495-4323
Peet's Coffee & Tea,22 Battery St,San Francisco ,CA,94111,(415) 981-4550
Starbucks Coffee,565 Clay St,San Francisco ,CA,94111,(415) 834-0578
Peet's Coffee & Tea,405 Howard St,San Francisco ,CA,94105,(415) 593-8920
Peet's Coffee & Tea,450 Sansome St Ste 1,San Francisco ,CA,94111,(415) 321-5280
Starbucks Coffee,425 Battery St,San Francisco ,CA,94111,(415) 445-9030
Peet's Coffee & Tea,2 Embarcadero Ctr Suite R2113,San Francisco ,CA,94111,(415) 869-1744
Peet's Coffee & Tea,919 Cole St,San Francisco ,CA,94117,(415) 213-1991
Peet's Coffee & Tea,3419 California St,San Francisco ,CA,94118,(415) 221-8506
Starbucks Coffee,99 Jackson St,San Francisco ,CA,94111,(415) 421-4464
Peet's Coffee & Tea,2080 Chestnut St,San Francisco ,CA,94123,(415) 635-2393
Starbucks Coffee,685 Beach St,San Francisco ,CA,94109,(415) 561-9594
Peet's Coffee & Tea,5201 Geary Blvd,San Francisco ,CA,94118,(415) 592-2200
Peet's Coffee & Tea,3251 20th Ave # Op182,San Francisco ,CA,94132,(415) 213-8380
Caffe Cova,550 Kearny St,San Francisco ,CA,94108,(415) 433-2682
Starbucks Coffee,1298 Howard St,San Francisco ,CA,94103,(415) 565-7385
Allegro Coffee Company,2001 Market St,San Francisco ,CA,94114,(415) 626-1430
Chai Bar By David Rio,1019 Market St,San Francisco ,CA,94103,(415) 865-0677
Starbucks Coffee,2300 16th St Ste 203,San Francisco ,CA,94103,(415) 575-1120
Starbucks Coffee,865 Market St,San Francisco ,CA,94103,(415) 348-0940
Starbucks Coffee,1401 Van Ness Ave,San Francisco ,CA,94109,(415) 474-7095
Starbucks Coffee,442 Geary St,San Francisco ,CA,94102,(415) 922-9086
Starbucks Coffee,2727 Mariposa St Ste 102,San Francisco ,CA,94110,(415) 552-2649
Starbucks Coffee,689 Townsend St,San Francisco ,CA,94103,(415) 255-7561
Starbucks Coffee,201 Powell St,San Francisco ,CA,94102,(415) 835-2470
Allegro Coffee Company,1765 California St,San Francisco ,CA,94109,(415) 674-0500
Starbucks Coffee,1560 Van Ness Ave,San Francisco ,CA,94109,(415) 749-0365
Starbucks Coffee,780 Market St,San Francisco ,CA,94102,(415) 677-4493
Allegro Coffee Company,399 4th St,San Francisco ,CA,94107,(415) 618-0066
Allegro Coffee Company,450 Rhode Island St,San Francisco ,CA,94107,(415) 552-1155
Starbucks Coffee,390 Stockton St,San Francisco ,CA,94108,(415) 989-1637
Starbucks Coffee,350 Parnassus Ave,San Francisco ,CA,94117,(415) 665-6406
Starbucks Coffee,4094 18th St,San Francisco ,CA,94114,(415) 626-6263
Starbucks Coffee,359 Grant Ave,San Francisco ,CA,94108,(415) 392-2365
Starbucks Coffee,1750 Divisadero St,San Francisco ,CA,94115,(415) 346-7193
Starbucks Coffee,36 2nd St,San Francisco ,CA,94105,(415) 291-0584
Starbucks Coffee,44 Montgomery St Ste 120,San Francisco ,CA,94104,(415) 397-4394
Starbucks Coffee,100 Montgomery St,San Francisco ,CA,94104,(415) 445-9561
Peet's Coffee & Tea,217 Montgomery St,San Francisco ,CA,94104,(415) 421-8420
Starbucks Coffee,555 California St,San Francisco ,CA,94104,(415) 788-8670
Starbucks Coffee,1799 Fulton St,San Francisco ,CA,94117,(415) 474-8930
Starbucks Coffee,280 King St,San Francisco ,CA,94107,(415) 344-0351
Starbucks Coffee,2675 Geary Blvd,San Francisco ,CA,94118,(415) 861-9454
Starbucks Coffee,100 1st St Ste 100,San Francisco ,CA,94105,(415) 896-5044
Starbucks Coffee,398 Market St,San Francisco ,CA,94111,(415) 243-9792
Starbucks Coffee,295 California St,San Francisco ,CA,94111,(415) 986-2349
Starbucks Coffee,1899 Union St,San Francisco ,CA,94123,(415) 921-4049
Starbucks Coffee,1375 3rd St,San Francisco ,CA,94158,(415) 535-4083
Ro Cafe,2739 Geary Blvd,San Francisco ,CA,94118,(415) 928-8817
Allegro Coffee Company,3950 24th St,San Francisco ,CA,94114,(415) 282-4700
Starbucks Coffee,199 Fremont St Ste 110,San Francisco ,CA,94105,(415) 615-0458
Starbucks Coffee,3995 24th St,San Francisco ,CA,94114,(415) 826-1118
Starbucks Coffee,52 California St,San Francisco ,CA,94111,(415) 398-8630
Starbucks Coffee,27 Drumm St,San Francisco ,CA,94111,(415) 392-3825
Starbucks Coffee,701 Battery St,San Francisco ,CA,94111,(415) 986-5808
Starbucks Coffee,310 Pacific Ave,San Francisco ,CA,94111,(415) 986-5808
Peet's Coffee & Tea,121 Spear St,San Francisco ,CA,94105,(628) 220-3250
Java House,40 Pier,San Francisco ,CA,94107,(415) 495-7260
CoffeeShop,3139 Mission St,San Francisco ,CA,94110,(415) 368-3802
Allegro Coffee Company,690 Stanyan St,San Francisco ,CA,94117,(415) 876-6740
Starbucks Coffee,499 Bay St,San Francisco ,CA,94133,(415) 409-1847
Peet's Coffee & Tea,1 Ferry Plz,San Francisco ,CA,94111,(415) 593-3831
Starbucks Coffee,The Embarcadero Pier 1,San Francisco ,CA,94111,(415) 956-3953
Starbucks Coffee,1255 Battery St Ste 600,San Francisco ,CA,94111,(415) 402-0379
Starbucks Coffee,2801 Jones St Ste 111,San Francisco ,CA,94133,(415) 776-7907
Starbucks Coffee,3801 3rd St Ste 112,San Francisco ,CA,94124,(415) 471-0874
Starbucks Coffee,1800 Irving St,San Francisco ,CA,94122,(415) 242-7970
Allegro Coffee Company,1150 Ocean Ave,San Francisco ,CA,94112,(415) 333-7400
Starbucks Coffee,2350 Noriega St,San Francisco ,CA,94122,(415) 665-4565
Cassava,3519 Balboa St,San Francisco ,CA,94121,(415) 640-8990
Starbucks Coffee,3251 20th Ave Ste 250f,San Francisco ,CA,94132,(415) 665-4956
Dottie's True Blue Cafe,28 6th St,San Francisco ,CA,94103,(415) 885-2767
Mangos Cafe,577 Geary St,San Francisco ,CA,94102,(415) 440-2097
Hrd,521 3rd St,San Francisco ,CA,94107,(415) 543-2355
Cafe Venue Montgomery,218 Montgomery St,San Francisco ,CA,94104,(415) 989-1144
Precita Park Cafe,500 Precita Ave,San Francisco ,CA,94110,(415) 647-7702
Cafe Francisco,2161 Powell St,San Francisco ,CA,94133,(415) 397-2602
Starbucks Coffee,3735 Buchanan St,San Francisco ,CA,94123,(415) 346-2852
Cafe 8,2829 Taylor Street,San Francisco ,CA,94133,(415) 359-1200
Old Skool Cafe,1429 Mendell St,San Francisco ,CA,94124,(415) 822-8531
MazzaLuna,810 Van Ness Ave,San Francisco ,CA,94109,(415) 525-3901
Scullery,687 Geary St,San Francisco ,CA,94102,(415) 440-4497
Cafe Venue,67 5th St,San Francisco ,CA,94103,(415) 546-1144
Provender,1415 18th St,San Francisco ,CA,94107,(415) 685-1722
Starbucks Coffee,1700 Owens St,San Francisco ,CA,94158,(415) 252-7423
Chart House,Pier 39 Space 206-8 Building K,San Francisco ,CA,94133,(415) 434-2260
Silver Cafe,4300 Mission St,San Francisco ,CA,94112,(415) 586-3237
Java Valencia,1594 Market St,San Francisco ,CA,94102,(415) 529-2983
Coffee Cultures,1321 Mission St,San Francisco ,CA,94103,(415) 896-4272
Ritual Coffee Roasters,432 Octavia St,San Francisco ,CA,94102,(415) 865-0989
Artis Coffee Octavia,537 Octavia St,San Francisco ,CA,94102,(415) 655-3576
Tea Garden,701 Golden Gate Ave,San Francisco ,CA,94102,(415) 882-4388
Coffee Smith,401 Golden Gate Ave,San Francisco ,CA,94102,(415) 522-1188
Philz Coffee,399 Golden Gate Ave,San Francisco ,CA,94102,(415) 621-7000
Peet's Coffee & Tea,100 Carlton B Goodlett Pl,San Francisco ,CA,94102,(415) 745-5964
Midway Cafe,450 Golden Gate Ave,San Francisco ,CA,94102,(415) 865-5495
Celtic Coffee Shop,138 Mcallister St,San Francisco ,CA,94102,(415) 255-0208
Emile's Coffee & Tea,614 Polk St,San Francisco ,CA,94102,(415) 673-1081
Coffee Tree,145 Hyde St,San Francisco ,CA,94102,(415) 922-5555
Peet's Coffee & Tea,450 10th St,San Francisco ,CA,94103,(415) 626-4388
Spiro Coffee,826 Van Ness Ave,San Francisco ,CA,94109,(415) 913-7862
Bay Blend Coffee and Tea,1905 Mission St,San Francisco ,CA,94103,(415) 558-8544
L & G Vietnamese Sandwich,602 Eddy St,San Francisco ,CA,94109,(415) 345-1878
Peet's Coffee & Tea,2001 Market St,San Francisco ,CA,94114,(415) 626-1430
Peet's Coffee & Tea,2020 Market St,San Francisco ,CA,94114,(415) 861-7660
Emmanuel Coffee,488 Haight St,San Francisco ,CA,94117,(415) 865-0522
Emo's Cafe & Deli,201 Turk St,San Francisco ,CA,94102,(415) 345-0015
Ritual Coffee Roasters,1050 Howard St,San Francisco ,CA,94103,(415) 641-1024
Duong Dong Cafe,315 Leavenworth St,San Francisco ,CA,94102,(415) 359-0215
Stanza Coffee,3126 16th St,San Francisco ,CA,94103,(415) 553-8966
El Cafe Tazo,3087 16th St,San Francisco ,CA,94103,(415) 522-0220
Hooker's Sweet Treats,442 Hyde St,San Francisco ,CA,94109,(415) 441-4628
Mr Appraisal,3159 16th St,San Francisco ,CA,94103,(415) 341-8158
Zo11 Coffee Traders,1035 Fillmore St,San Francisco ,CA,94115,(415) 872-9880
Little Bird Coffee House,835 Geary St,San Francisco ,CA,94109,(415) 440-2165
Power Up Cafe,1001 Brannan St,San Francisco ,CA,94103,(415) 863-1431
The Little Spot Cafe,1199 Van Ness Ave,San Francisco ,CA,94109,(415) 550-1800
Angel Cafe & Deli,700 Geary St,San Francisco ,CA,94109,(415) 931-3467
Caffe Roma Coffee Roasting Company,885 Bryant St,San Francisco ,CA,94103,(415) 296-7662
Macha Cafe,1355 Sutter St,San Francisco ,CA,94109,(415) 563-8079
Starbucks Coffee,1335 Webster St Ste 1,San Francisco ,CA,94115,(415) 921-4557
Peet's Coffee & Tea,1335 Webster St,San Francisco ,CA,94115,(415) 921-4557
Latte Express,48 5th St,San Francisco ,CA,94103,(415) 284-7328
Casein Caffiene,855 Bryant St,San Francisco ,CA,94103,(415) 660-5986
Front Cafe,498 Alabama St,San Francisco ,CA,94110,(415) 437-6822
Cozy Cafe,965 Sutter St,San Francisco ,CA,94109,(415) 922-4826
Starbucks Coffee,744 Irving St,San Francisco ,CA,94122,(415) 664-8340
Peet's Coffee & Tea,773 Market St,San Francisco ,CA,94103,(415) 530-2559
The Soap Box Cafe,1800 Hyde St,San Francisco ,CA,94109,(415) 829-7139
Rain Tree Cafe,654 Irving St,San Francisco ,CA,94122,(415) 665-3633
Harvest & Rowe Inc,55 2nd St Ste 150,San Francisco ,CA,94105,(415) 541-7771
Nile Cafe,544 Jones St,San Francisco ,CA,94102,(415) 409-1000
Sausalito Espresso,50 Beale St,San Francisco ,CA,94105,(415) 541-0400
Chaat Cafe Express,1 Montgomery St,San Francisco ,CA,94104,(415) 391-2082
El Cafe Tazo,3087 16th St,San Francisco ,CA,94103,(415) 522-0220
Sausalito Espresso,100 1st St,San Francisco ,CA,94105,(415) 222-9922
Cafe Luna,3313 Sacramento St,San Francisco ,CA,94118,(415) 346-7900
Working Girls' Cafe,122 New Montgomery St,San Francisco ,CA,94105,(415) 537-1170
Caffe Del Sole,4342 California St,San Francisco ,CA,94118,(415) 386-1800
What A Grind,881 Post St,San Francisco ,CA,94109,(415) 921-9800
TJ Cafe,724 La Playa St,San Francisco ,CA,94121,(415) 702-6286
Peet's Coffee & Tea,601 Van Ness Ave Ste A,San Francisco ,CA,94102,(415) 593-2661
Starbucks Coffee,2020 Market St,San Francisco ,CA,94114,(415) 431-5561
Starbucks Coffee,1298 Howard St,San Francisco ,CA,94103,(415) 565-7385
Mangos Cafe,577 Geary St,San Francisco ,CA,94102,(415) 440-2097
Cafe Dolci,740 Market St,San Francisco ,CA,94102,(415) 392-9222
Latte Express,448 Beach St,San Francisco ,CA,94133,(415) 775-4293
Emma's Coffee House,5549 Geary Blvd,San Francisco ,CA,94121,(415) 933-6632
Lemur Cafe,1 Zoo Rd,San Francisco ,CA,94132,(415) 759-8046
Caffe Terzetto Express,400 Parnassus Ave,San Francisco ,CA,94143,(415) 592-8206
Jebena,990 Polk St,San Francisco ,CA,94109,(415) 409-1200
Acre Cafe,1013 Lincoln Way,San Francisco ,CA,94122,(415) 561-2273
G Cube Cafe,1626 Taraval St,San Francisco ,CA,94116,(415) 682-4578
Sea Lion Cafe,39 Pier,San Francisco ,CA,94133,(415) 434-2260
The Creek Cafe,968 Valencia St,San Francisco ,CA,94110,(415) 641-0888
Java Valencia,1594 Market St,San Francisco ,CA,94102,(415) 529-2983
Bernie's,50 Post St,San Francisco ,CA,94104,(415) 732-0280
Peet's Coffee & Tea,680 Folsom St,San Francisco ,CA,94107,(877) 502-2837
Peet's Coffee & Tea,4201 18th St,San Francisco ,CA,94114,(415) 431-3822
The Temporarium,3414 22nd St,San Francisco ,CA,94110,(415) 547-0616
Peet's Coffee & Tea,2 Montgomery St,San Francisco ,CA,94104,(201) 508-2305
The Roastery,199 New Montgomery St Ste A,San Francisco ,CA,94105,(415) 538-7887
De La Paz Coffee,933 Treat Ave,San Francisco ,CA,94110,(415) 525-4344
Grand Coffee,2663 Mission St,San Francisco ,CA,94110,(415) 206-1238
The Coffee Bean & Tea Leaf,155 Montgomery St,San Francisco ,CA,94104,(415) 393-9611
Cafe Isabella,1414 Taylor St,San Francisco ,CA,94133,(415) 378-3241
Chatz Coffee Shop,215 2nd St Lbby 2,San Francisco ,CA,94105,(415) 977-0508
Philz Coffee,201 Berry St,San Francisco ,CA,94158,(415) 875-9943
Peet's Coffee & Tea,1750 Fulton St,San Francisco ,CA,94117,(415) 923-6411
Starbucks Coffee,299 2nd St,San Francisco ,CA,94105,(415) 947-0700
Starbucks Coffee,225 Bush St,San Francisco ,CA,94104,(415) 365-0834
Amitis Cafe,800 Masonic Ave,San Francisco ,CA,94117,(415) 563-2828
Peet's Coffee & Tea,100 Upper Ter,San Francisco ,CA,94117,(415) 269-3860
Fearless Coffee,303 2nd St,San Francisco ,CA,94107,(415) 692-0181
Peet's Coffee & Tea,298 King St,San Francisco ,CA,94107,(415) 633-1001
Starbucks Coffee,298 King St,San Francisco ,CA,94107,(415) 633-1001
Tazza D' Amore,700 4th St,San Francisco ,CA,94107,(415) 344-0098
Cafe La Boheme,3318 24th St,San Francisco ,CA,94110,(415) 643-0481
Haus Coffee,3086 24th St,San Francisco ,CA,94110,(415) 374-7353
Java Joe's,2675 Geary Blvd Ste C1,San Francisco ,CA,94118,(415) 409-8267
Peet's Coffee & Tea,2675 Geary Blvd,San Francisco ,CA,94118,(415) 796-5280
Ecco Caffe,1125 Mariposa St,San Francisco ,CA,94107,(415) 861-3384
Temo Cafe,3000 24th St,San Francisco ,CA,94110,(415) 829-2822
Sundance Coffee,3000 24th St,San Francisco ,CA,94110,(415) 824-1706
Coffee Mission,3325 24th St,San Francisco ,CA,94110,(415) 874-9419
Sausalito Espresso,100 1st St,San Francisco ,CA,94105,(415) 222-9922
Bravado Italian Coffee Bar and Lounge,170 King St,San Francisco ,CA,94107,(415) 957-1100
Peet's Coffee & Tea,1524 20th St,San Francisco ,CA,94107,(415) 282-9204
Philz Coffee,1 Front St Ste 100,San Francisco ,CA,94111,(415) 568-2535
Sausalito Expresso,655 Montgomery St,San Francisco ,CA,94111,(415) 391-3045
Il Cano Cafe,275 Battery St Ste Sl2,San Francisco ,CA,94111,(415) 986-6565
Cafe Zoetrope,916 Kearny St,San Francisco ,CA,94133,(415) 291-1700
Peet's Coffee & Tea,3950 24th St,San Francisco ,CA,94114,(415) 282-4700
Reveille Coffee,200 Columbus Ave,San Francisco ,CA,94133,(415) 766-4289
Never To Latte,303 Sacramento St,San Francisco ,CA,94111,(415) 576-1176
Peet's Coffee & Tea,1 Embarcadero Ctr,San Francisco ,CA,94111,(415) 593-3831
Swank Cocktail And Coffee Club,444 Presidio Ave,San Francisco ,CA,94115,(415) 346-7431
Cantata Coffee Shop,1708 Haight St,San Francisco ,CA,94117,(415) 221-5555
Paisanos Cafe,3017 Mission St,San Francisco ,CA,94110,(415) 826-1865
Peet's Coffee & Tea,3060 Fillmore St,San Francisco ,CA,94123,(415) 567-6900
Peet's Coffee & Tea,120 Brannan St,San Francisco ,CA,94107,(415) 227-0151
Sweet Chinito Coffee,3100 Mission St,San Francisco ,CA,94110,(415) 821-3388
Peet's Coffee & Tea,145 Jackson St,San Francisco ,CA,94111,(415) 982-3112
The Coffee Bean & Tea Leaf,150 Drumm St,San Francisco ,CA,94111,(415) 391-8068
First Cup,2911 Van Ness Ave,San Francisco ,CA,94109,(415) 922-2054
Cafe Latte,4 Embarcadero Ctr,San Francisco ,CA,94111,(415) 982-2233
Peet's Coffee & Tea,690 Stanyan St,San Francisco ,CA,94117,(415) 876-6740
Philz Coffee,4296 24th St,San Francisco ,CA,94114,(415) 817-1510
Drip Coffee Co,450 Stanyan St,San Francisco ,CA,94117,(415) 750-1964
Peet's Coffee & Tea,1023 Stanyan St,San Francisco ,CA,94117,(415) 564-2800
Dogpatch Cafe,2295 3rd St,San Francisco ,CA,94107,(415) 255-9982
Peet's Coffee & Tea,3585 California St,San Francisco ,CA,94118,(415) 221-1818
Peet's Coffee & Tea,2156 Chestnut St,San Francisco ,CA,94123,(415) 931-8302
Earth's Coffee,3400 Geary Blvd,San Francisco ,CA,94118,(415) 933-8628
Cafe Seventy 8,78 29th St,San Francisco ,CA,94110,(415) 970-2233
Cafe De Casa,2701 Leavenworth St,San Francisco ,CA,94133,(415) 345-1055
Bay Cafe,3250 Van Ness Ave,San Francisco ,CA,94109,(415) 928-8868
Peet's Coffee & Tea,1425 Sansome St,San Francisco ,CA,94111,(415) 397-7160
Cup A Java Coffee House,3500 Geary Blvd,San Francisco ,CA,94118,(415) 933-6373
Peet's Coffee & Tea,15 Marina Blvd,San Francisco ,CA,94123,(415) 563-7498
Peet's Coffee & Tea,3350 Mission St,San Francisco ,CA,94110,(415) 826-2666
Peet's Coffee & Tea,350 Bay St,San Francisco ,CA,94133,(415) 781-4374
Tan's Cafe III,155 Francisco St,San Francisco ,CA,94133,(415) 982-2290
Latte Express,448 Beach St,San Francisco ,CA,94133,(415) 775-4293
Peet's Coffee & Tea,160 Jefferson St,San Francisco ,CA,94133,(415) 928-1849
Peet's Coffee & Tea,1600 Divisadero St,San Francisco ,CA,94143,(415) 353-9193
The Pub,1675 Owens St,San Francisco ,CA,94143,(415) 514-4748
Starbucks Coffee,5290 Diamond Heights Blvd,San Francisco ,CA,94131,(415) 824-7744
Peet's Coffee & Tea,5290 Diamond Heights Blvd,San Francisco ,CA,94131,(415) 824-7744
Peet's Coffee & Tea,370 4th Ave,San Francisco ,CA,94118,(415) 896-5351
Peet's Coffee & Tea,448 Cortland Ave,San Francisco ,CA,94110,(415) 648-3221
Peet's Coffee & Tea,735 7th Ave,San Francisco ,CA,94118,(415) 683-4070
Peet's Coffee & Tea,635 Portola Dr,San Francisco ,CA,94127,(415) 664-1600
Coffee Break,4601 Geary Blvd,San Francisco ,CA,94118,(415) 933-6295
Coffee Bar Montgomery,101 Montgomery St,San Francisco ,CA,94129,(415) 397-2233
Ritual Coffee Roasters,1634 Jerrold Ave,San Francisco ,CA,94124,(415) 694-6448
Cafe Bello,2885 Diamond St,San Francisco ,CA,94131,(415) 585-3457
Peet's Coffee & Tea,1200 Irving St,San Francisco ,CA,94122,(415) 661-3220
Cup Coffee Bar,6 Monterey Blvd,San Francisco ,CA,94131,(415) 508-9573
First Cup Cafe,4646 3rd St,San Francisco ,CA,94124,(415) 796-3101
Lolocup Tea & Coffee,2527 San Bruno Ave,San Francisco ,CA,94134,(415) 715-6757
Sharetea,5336 Geary Blvd,San Francisco ,CA,94121,(415) 379-4872
Four Barrel Coffee,2599 San Bruno Ave,San Francisco ,CA,94134,(415) 715-8296
Emma's Coffee House,5549 Geary Blvd,San Francisco ,CA,94121,(415) 933-6632
Javacat Coffee,5549 Geary Blvd,San Francisco ,CA,94121,(415) 933-8465
Tasty Coffee,1818 San Jose Ave,San Francisco ,CA,94112,(415) 585-8853
Roadhouse Cafe,5191 3rd St,San Francisco ,CA,94124,(415) 671-2075
Ann's Doughnut Coffee Shop,4488 Mission St,San Francisco ,CA,94112,(415) 334-1761
Peet's Coffee & Tea,625 Monterey Blvd,San Francisco ,CA,94127,(415) 586-2421
The Storehouse,451 Galvez Ave,San Francisco ,CA,94124,(415) 671-2050
Railroad Expresso,705 Monterey Blvd,San Francisco ,CA,94127,(415) 333-4009
Peet's Coffee & Tea,5843 Geary Blvd,San Francisco ,CA,94121,(415) 387-6367
Schweet Boks,2142 Irving St,San Francisco ,CA,94122,(415) 592-8914
Thanh Thanh Cafe,2205 Clement St,San Francisco ,CA,94121,(415) 387-1759
Peet's Coffee & Tea,490 Taraval St,San Francisco ,CA,94116,(415) 564-0585
Aroma Coffee House,4675 Mission St,San Francisco ,CA,94112,(415) 333-6898
Royal Ground Coffee,2342 Clement St,San Francisco ,CA,94121,(415) 387-5282
Cumacia,4726 Mission St,San Francisco ,CA,94112,(415) 337-1500
Peet's Coffee & Tea,730 Taraval St,San Francisco ,CA,94116,(415) 665-4136
Coffornia Limited,296 Ocean Ave,San Francisco ,CA,94112,(415) 584-8664
Artis Coffee,1439 Egbert Ave,San Francisco ,CA,94124,(415) 875-9081
Peet's Coffee & Tea,4950 Mission St,San Francisco ,CA,94112,(415) 587-7200
Philz Coffee,1110 Ocean Ave,San Francisco ,CA,94112,(415) 841-1178
Peet's Coffee & Tea,1150 Ocean Ave,San Francisco ,CA,94112,(415) 333-7400
Java Jitters,1125 Ocean Ave,San Francisco ,CA,94112,(415) 333-3771
Starbucks Coffee,1830 Ocean Ave,San Francisco ,CA,94112,(415) 840-0523
Peet's Coffee & Tea,2350 Noriega St,San Francisco ,CA,94122,(415) 665-4565
McGarden Coffee And Bakery,5131 Mission St,San Francisco ,CA,94112,(415) 333-0168
Morey Cafe,1901 Ocean Ave,San Francisco ,CA,94127,(415) 337-7426
Foglifter Cafe,1901 Ocean Ave,San Francisco ,CA,94127,(415) 349-4543
Peet's Coffee & Tea,2605 Ocean Ave,San Francisco ,CA,94132,(415) 334-5305
Eat Drink Play,28 Leland Ave,San Francisco ,CA,94134,(415) 587-7688
Peet's Coffee & Tea,1515 Sloat Blvd,San Francisco ,CA,94132,(415) 681-4300
Peet's Coffee & Tea,1630 Holloway Ave,San Francisco ,CA,94132,(415) 338-1854
Spressa Coffee Bar,51 Cambon Dr,San Francisco ,CA,94132,(415) 239-1520
Peet's Coffee & Tea,850 La Playa St,San Francisco ,CA,94121,(415) 387-4664
Beachside Cafe,4300 Judah St,San Francisco ,CA,94122,(415) 213-5370
Peet's Coffee & Tea,SF Airport Terminal 1,San Francisco ,CA,94128,(650) 821-8952
Peet's Coffee & Tea,100 Upper Intl Loop Sfo,San Francisco ,CA,94128,(650) 821-9197
Starbucks Coffee,Sfo Terminal 3 United GATE73,San Francisco ,CA,94128,(650) 333-1152
Starbucks Coffee,San Francisco International,San Francisco ,CA,94128,(650) 333-0108
Machine Coffee & Deli,1024 Market St,San Francisco ,CA,94102,(415) 913-7370
Verve Coffee Roasters,2101 Market St,San Francisco ,CA,94114,(415) 553-3838
El Manifesto,350 Taylor St,San Francisco ,CA,94102,(650) 293-1065
Espressions,950 California St,San Francisco ,CA,94108,(415) 661-6071
Philz Coffee,549 Castro St,San Francisco ,CA,94114,(415) 321-6276
Janore Inc,1200 Mason St,San Francisco ,CA,94108,(650) 888-4395
Newtree,1 Ecker Pl,San Francisco ,CA,94105,(415) 747-9871
Intelligentsia Coffee,1125 Mariposa St,San Francisco ,CA,94107,(415) 861-3384
Philz Coffee,300 Folsom St,San Francisco ,CA,94105,(415) 230-6359
Stanza Coffee,1673 Haight St,San Francisco ,CA,94117,(415) 529-1592
Les Croissant,2 California St,San Francisco ,CA,94111,(415) 982-8855
Sausalito Espresso,5 Embarcadero Ctr,San Francisco ,CA,94111,(415) 222-9922
Philz Coffee,5 Embarcadero Ctr,San Francisco ,CA,94111,(415) 321-1499
Philz Coffee,3101 Folsom St,San Francisco ,CA,94110,(415) 875-9370
Java Jacket Inc,2640 Greenwich St,San Francisco ,CA,94123,(415) 775-7540
Fearless Coffee Shop,303 2nd Ave,San Francisco ,CA,94118,(415) 692-0181
Blanc Cafe,549 Irving St,San Francisco ,CA,94122,(415) 592-8174
Philz Coffee,1775 17th Ave,San Francisco ,CA,94122,(415) 814-8096
La Bouboulange La,16 W Portal Ave,San Francisco ,CA,94127,(415) 753-0300
Mavelous,1408 Market St,San Francisco ,CA,94102,(415) 626-8884
Floogie's Swamp Cafe,1686 Market St,San Francisco ,CA,94102,(415) 864-3700
Coffee Bar,1599 Howard St,San Francisco ,CA,94103,(415) 861-5438
Mercury Cafe,201 Octavia St,San Francisco ,CA,94102,(415) 252-7855
Cafe Soma,1601 Howard St,San Francisco ,CA,94103,(415) 861-5012
Mint,100 Larkin St,San Francisco ,CA,94102,(415) 864-4404
Technologies Inc Cafe X,329 12th St,San Francisco ,CA,94103,(415) 624-3168
Soluna Cafe & Lounge,272 Mcallister St,San Francisco ,CA,94102,(415) 621-2200
All Day Cafe,1105 Market St,San Francisco ,CA,94103,(415) 252-8883
Caffe Moda,160 7th St,San Francisco ,CA,94103,(415) 255-0628
Lafayette Coffee Shop,611 Larkin St,San Francisco ,CA,94109,(415) 441-4884
De La Paz Coffee,1081 Mission St,San Francisco ,CA,94103,(415) 525-4344
New Star Cafe,400 Eddy St,San Francisco ,CA,94109,(415) 771-9690
Tu Kim Cafe,609 Ellis St,San Francisco ,CA,94109,(415) 567-1685
Mongol Cafe,842 Geary St,San Francisco ,CA,94109,(415) 913-8879
Siam Cafe,807 Geary St,San Francisco ,CA,94109,(415) 775-5821
Axum Cafe,698 Haight St,San Francisco ,CA,94117,(415) 252-7912
Barbary Coast,55 Cyril Magnin St,San Francisco ,CA,94102,(415) 989-3888
Cafe Majestic,1500 Sutter St,San Francisco ,CA,94109,(415) 441-1280
Mission Heirloom,865 Market St,San Francisco ,CA,94103,(650) 761-1330
Caffe Pazzo,2 Henry Adams St,San Francisco ,CA,94103,(415) 487-1509
Red Door Cafe,1608 Bush St,San Francisco ,CA,94109,(415) 441-1564
Tan Tan Coffee Shop,1825 Post St,San Francisco ,CA,94115,(415) 346-6260
Dolce Amore,1477 Van Ness Ave,San Francisco ,CA,94109,(415) 674-7716
H2O Cafe,1330 Polk St,San Francisco ,CA,94109,(415) 929-6880
Ti Ti,1488 Pine St,San Francisco ,CA,94109,(415) 359-9301
Cafe Divis,359 Divisadero St,San Francisco ,CA,94117,(415) 621-4132
Shama Coffee Shop,2310 Mission St,San Francisco ,CA,94110,(415) 695-0560
My Corner Cafe,1500 Van Ness Ave,San Francisco ,CA,94109,(415) 550-2382
Cafe Central,133 Ofarrell St,San Francisco ,CA,94102,(415) 374-2000
Slider Bar Cafe,2295 Market St,San Francisco ,CA,94114,(415) 431-7700
Another Cafe,1191 Pine St,San Francisco ,CA,94109,(415) 624-3396
Flower Market Cafe,698 Brannan St,San Francisco ,CA,94107,(415) 495-7162
Oasis Cafe,901 Divisadero St,San Francisco ,CA,94115,(415) 474-4900
Oakside Cafe,1195 Oak St,San Francisco ,CA,94117,(415) 437-1985
Caffe Espresso,462 Powell St,San Francisco ,CA,94102,(415) 395-8585
Cozy Cable Car Cafe,519 Powell St,San Francisco ,CA,94108,(415) 982-3097
Ysk Castro Inc,469 Castro St,San Francisco ,CA,94114,(415) 553-6633
Coffee Bar Kearny,433 Kearny St,San Francisco ,CA,94108,(415) 391-2296
Caffe Cova,1 Sansome St,San Francisco ,CA,94104,(415) 433-2682
Blue Bottle Coffee,115 Sansome St,San Francisco ,CA,94104,(510) 653-3394
Coffee Partners LP,1 Bush St Ste 650,San Francisco ,CA,94104,(415) 788-2000
Parker Cafe,1399 18th St,San Francisco ,CA,94107,(415) 829-3796
Cafe Venue Leidesdorff,70 Leidesdorff St,San Francisco ,CA,94104,(415) 576-1144
Ma's Dimsum & Cafe,1315 Powell St,San Francisco ,CA,94133,(415) 788-3532
Caffe Fiore,3599 24th St,San Francisco ,CA,94110,(415) 642-4822
Thinkers Cafe,1631 20th St,San Francisco ,CA,94107,(415) 285-8294
Evergreen Cafe,645 Clay St,San Francisco ,CA,94111,(415) 362-3198
Bread and Butter Cafe,1901 Hayes St,San Francisco ,CA,94117,(415) 221-8700
Caffe Pascucci Shop,170 King St,San Francisco ,CA,94107,(415) 957-1100
Good Eats Cafe,200 Pine St Ste 160,San Francisco ,CA,94104,(415) 288-8612
Saint Frank Coffee,2340 Polk St,San Francisco ,CA,94109,(415) 775-1619
L's Caffe,2871 24th St,San Francisco ,CA,94110,(415) 206-0274
Souffles Cafe,1401 Powell St,San Francisco ,CA,94133,(415) 399-1687
Espressamente Illy,123 Battery St,San Francisco ,CA,94111,(415) 544-9960
The Brew,2436 Polk St,San Francisco ,CA,94109,(415) 440-1678
Tricolore Cafe & Pizzeria,590 Washington St,San Francisco ,CA,94111,(415) 391-0509
Terzetto Cafe,550 Gene Friend Way,San Francisco ,CA,94158,(415) 592-8205
Illy Caffe,2055 Union St,San Francisco ,CA,94123,(415) 500-2788
Cafe Venue,215 Fremont St Ste 3,San Francisco ,CA,94105,(415) 357-1144
Firehouse Cafe,545 Sansome St,San Francisco ,CA,94111,(415) 397-2232
Cafe Me,500 Washington St Ste 102,San Francisco ,CA,94111,(415) 288-8628
Cafe Prague,424 Merchant St,San Francisco ,CA,94111,(415) 627-7464
Cafe Luna,3313 Sacramento St,San Francisco ,CA,94118,(415) 346-7900
Le Petit Cafe,1 Maritime Plz Fl Grnd,San Francisco ,CA,94111,(415) 951-8514
Paramo Coffee,50 Drumm St,San Francisco ,CA,94111,(415) 434-4472
Cafe Insalata,209 Jackson St,San Francisco ,CA,94111,(415) 398-4737
Caffe Dolci,3101 Fillmore St,San Francisco ,CA,94123,(415) 563-8434
Sweet Joanna's Cafe,101 Howard St,San Francisco ,CA,94105,(415) 974-6822
Cafe Elena,1 Market Plz Fl 5,San Francisco ,CA,94105,(415) 543-8933
Eclipse Kitchen & Bar,5 Embarcadero Ctr,San Francisco ,CA,94111,(415) 291-6581
Philz Coffee Inc.,300 Broadway,San Francisco ,CA,94133,(415) 568-2535
Spin City Coffee,1299 Sanchez St,San Francisco ,CA,94114,(415) 806-4566
Royal Ground Coffee,3101 Geary Blvd,San Francisco ,CA,94118,(415) 386-2057
Bereka Coffee,2320 Lombard St,San Francisco ,CA,94123,(415) 625-3092
Cafe Bellini,500 Parnassus Ave,San Francisco ,CA,94143,(415) 702-6979
Pinhole Coffee,231 Cortland Ave,San Francisco ,CA,94110,(415) 364-8257
Gold Corner Cafe,2723 Oakdale Ave,San Francisco ,CA,94124,(415) 824-8028
San Francisco Coffee Roasting,Pier 39,San Francisco ,CA,94133,(415) 393-9554
Cafe de Pera,349 Clement St,San Francisco ,CA,94118,(415) 666-3839
Caffe Del Sole,4342 California St,San Francisco ,CA,94118,(415) 386-1800
America's Best Coffee Roasting,1500 Davidson Ave Ste A,San Francisco ,CA,94124,(415) 285-5556
Ashley's Cafe,4454 California St,San Francisco ,CA,94118,(415) 831-6269
Balompie Cafe Inc,3801 Mission St,San Francisco ,CA,94110,(415) 647-4000
Transit Cafe,215 Lincoln Blvd,San Francisco ,CA,94129,(415) 561-4435
Drip'd Coffee,1352A 9th Ave,San Francisco ,CA,94122,(415) 242-9698
Dash Cafe,420 Judah St,San Francisco ,CA,94122,(415) 661-1237
Russian Deli Inc,4601 Geary Blvd,San Francisco ,CA,94118,(415) 933-6295
Happy Cafe,952 Clement St,San Francisco ,CA,94118,(415) 751-8278
Bello Coffee & Tea,2885 Diamond St,San Francisco ,CA,94131,(415) 585-3457
Tops Cafe,2460 San Bruno Ave,San Francisco ,CA,94134,(415) 715-6868
San Bruno Cafe,2546 San Bruno Ave,San Francisco ,CA,94134,(415) 468-8008
Dano Vietnamese Coffee,5668 3rd St,San Francisco ,CA,94124,(415) 525-3304
Cafe Enchante,6157 Geary Blvd,San Francisco ,CA,94121,(415) 742-0324
Quickly,1050 Taraval St,San Francisco ,CA,94116,(415) 988-1660
Mellow's Cafe,1400 Taraval St,San Francisco ,CA,94116,(415) 759-8955
Trolley Caffe,1400 Taraval St,San Francisco ,CA,94116,(415) 759-8955
The Atlas Cafe,3049 20th Ave,San Francisco ,CA,94132,(415) 648-1047
Park Cafe,595 Buckingham Way,San Francisco ,CA,94132,(415) 759-1898
Zephyr Caffe,3643 Balboa St,San Francisco ,CA,94121,(415) 221-6063
Cafe' Montechristo,2101 Geneva Ave,San Francisco ,CA,94134,(415) 334-2326
Javaholics Co,5700 Mission St Apt 4,San Francisco ,CA,94112,(415) 988-7251
Total Price Productions,253 Farallones St,San Francisco ,CA,94112,(415) 508-9573
Hss 121 Cafe,1600 Holloway Ave,San Francisco ,CA,94132,(415) 333-3929
Lemur Cafe,1 Zoo Rd,San Francisco ,CA,94132,(415) 759-8046
Hole In The Wall Saloon,1369 Folsom St,San Francisco ,CA,94103,(415) 431-4695
Auto Row Coffee,826 Van Ness Ave,San Francisco ,CA,94109,(415) 913-7186
Horseshoe Cafe,566 Haight St,San Francisco ,CA,94117,(415) 255-7297
What A Grind,881 Post St,San Francisco ,CA,94109,(415) 921-9800
Circadia Coffee House,2727 Mariposa St,San Francisco ,CA,94110,(415) 552-2649
Sugar Cafe,679 Sutter St,San Francisco ,CA,94102,(415) 923-8146
Ritual Coffee Roasters,2299 Market St,San Francisco ,CA,94114,(415) 400-5036
Borderlands Cafe,870 Valencia St,San Francisco ,CA,94110,(415) 970-6998
Emporio Rulli Union Square,225 Stockton St,San Francisco ,CA,94108,(415) 433-1122
Nespresso USA Inc,9 Grant Ave,San Francisco ,CA,94108,(415) 249-0928
Good Luck Cafe & Deli,62 Kearny St,San Francisco ,CA,94108,(415) 781-2328
6 Degrees Cafe,199 New Montgomery St,San Francisco ,CA,94105,(415) 538-7887
Tully's Coffee,2455 Fillmore St,San Francisco ,CA,94115,(415) 929-8808
Cup A Joe Coffeehouse,1901 Hayes St,San Francisco ,CA,94117,(415) 221-8700
Ironside,680a 2nd St,San Francisco ,CA,94107,(415) 896-1127
Tully's Coffee,3966 24th St,San Francisco ,CA,94114,(415) 550-7416
Tully's Coffee,100 California St,San Francisco ,CA,94111,(415) 296-0851
Wooden Coffee Shop,862 Cole St,San Francisco ,CA,94117,(415) 742-4887
Maui Wowi,39 Pier Ste H1,San Francisco ,CA,94133,(415) 986-4785
Cafe Sadko,2229 Clement St,San Francisco ,CA,94121,(415) 666-3420
Zodiac Coffee & Tea,4653 Mission St,San Francisco ,CA,94112,(415) 769-5557
Andytown SF,3629 Taraval St,San Francisco ,CA,94116,(415) 571-8052
Mini Cafe,28 Van Ness Ave,San Francisco ,CA,94102,(415) 436-0177
Lunch Geek,1475 Market St,San Francisco ,CA,94103,(415) 552-4449
Nina's Cafe,201 Fell St,San Francisco ,CA,94102,(415) 437-2734
20th Century Cafe,198 Gough St,San Francisco ,CA,94102,(415) 621-2380
Arlequin Cafe,384 Hayes St Ste A,San Francisco ,CA,94102,(415) 626-1211
Gaslamp,1599 Howard St,San Francisco ,CA,94103,(415) 580-7493
Coffee Mine,79 9th St,San Francisco ,CA,94103,(415) 252-9795
My Corner Cafe Inc,500 Van Ness Ave,San Francisco ,CA,94102,(415) 550-2382
Mint Cafe,400 Mcallister St,San Francisco ,CA,94102,(415) 431-6468
Agesong Forget Me Not Cafe,602 Hayes St,San Francisco ,CA,94102,(415) 861-1381
Mocha's Cafe,455 Golden Gate Ave,San Francisco ,CA,94102,(415) 777-1167
Dolce & Salato,1145 Market St Fl Grnd,San Francisco ,CA,94103,(415) 626-2346
Cafe Trinity,1145 Market St Fl 12,San Francisco ,CA,94103,(415) 431-4010
Cafe Regent 1,450 Golden Gate Ave,San Francisco ,CA,94102,(415) 522-0125
Carlin's Cafe,298 Valencia St,San Francisco ,CA,94103,(415) 552-3147
Mj's Cafe,87 Mcallister St,San Francisco ,CA,94102,(415) 252-7661
Ox Cafe,798 Van Ness Ave,San Francisco ,CA,94102,(415) 824-1838
Berber Cafe,149 Hyde St,San Francisco ,CA,94102,(415) 749-0923
L & M Cafe,1081 Market St,San Francisco ,CA,94103,(415) 252-1027
Cafe At The Opera House,410 S Van Ness Ave,San Francisco ,CA,94103,(415) 861-8150
Kien Thanh Coffee Shop,431 Eddy St,San Francisco ,CA,94109,(415) 775-2606
Four Season Cafe Restaurant,721 Larkin St,San Francisco ,CA,94109,(415) 674-4146
Lost Ladle Cafe,1550 Bryant St,San Francisco ,CA,94103,(415) 621-2087
American Cafe,995 Market St,San Francisco ,CA,94103,(415) 546-1616
American Indian Cafe,132 6th St,San Francisco ,CA,94103,(415) 436-9000
Chico's Cafe,133 6th St,San Francisco ,CA,94103,(415) 442-0010
Pop Up Cafe,620 Ofarrell St,San Francisco ,CA,94109,(415) 796-3391
Urban Burger,581 Valencia St,San Francisco ,CA,94110,(415) 551-2483
Lets Jam Cafe,842 Geary St,San Francisco ,CA,94109,(510) 387-7131
Golden Gate Cardiology,1 Daniel Burnham Ct,San Francisco ,CA,94109,(415) 600-1099
Lidia's Cafe Restaurant,550 15th St,San Francisco ,CA,94103,(415) 626-6608
Cafe Gratitude,2211 Mission St,San Francisco ,CA,94110,(415) 824-1804
Yakini Q,1640 Post St,San Francisco ,CA,94115,(415) 441-9291
Caffe D'Amore,3463 16th St,San Francisco ,CA,94114,(415) 864-2965
Daniels Cafe,154 Ellis St,San Francisco ,CA,94102,(415) 956-1760
La Scene Cafe & Bar,490 Geary St,San Francisco ,CA,94102,(415) 292-6430
Sunflower Cafe,284 Ofarrell St,San Francisco ,CA,94102,(415) 986-6016
Sammy's Cafe,1416 Bush St,San Francisco ,CA,94109,(415) 749-1938
Japantown Bowl Coffee Shop,1790 Post St,San Francisco ,CA,94115,(650) 583-0251
Cafe Central,845 Market St,San Francisco ,CA,94103,(415) 348-1070
Sunny Cafe,1338 Polk St,San Francisco ,CA,94109,(415) 921-1338
City's Choice Cafe,301 5th St,San Francisco ,CA,94107,(415) 896-1888
Les Croissants Cafe,1840 Geary Blvd,San Francisco ,CA,94115,(415) 292-6688
Reform Club,2331 Mission St,San Francisco ,CA,94110,(415) 689-6446
Cafe Taboo,600 York St,San Francisco ,CA,94110,(415) 341-1188
La Galleria Cafe,930 Bush St,San Francisco ,CA,94109,(415) 875-9966
CurateCafe,1801 Gough St Apt 405,San Francisco ,CA,94109,(415) 672-8221
Social me consulting,1801 Gough St Apt 405,San Francisco ,CA,94109,(415) 672-8221
Theatre Too Cafe,539 Sutter St,San Francisco ,CA,94102,(415) 392-4866
Javalencia Cafe,920 Valencia St,San Francisco ,CA,94110,(415) 824-4371
Cafe Mozart,708 Bush St,San Francisco ,CA,94108,(415) 391-8480
Rhea's Cafe,2200 Bryant St,San Francisco ,CA,94110,(415) 875-9481
Rendezvous Cafe,1760 Polk St,San Francisco ,CA,94109,(415) 292-4033
Jade Cafe,18 Geary St,San Francisco ,CA,94108,(415) 981-6138
Medjool Restaurant Cafe,2524 Mission St,San Francisco ,CA,94110,(415) 643-4924
Iron Horse Coffee Bar,25 Maiden Ln,San Francisco ,CA,94108,(415) 623-9629
Sutter's Cafe,330 Sutter St,San Francisco ,CA,94108,(415) 434-3309
Reveille Coffee,4076 18th St,San Francisco ,CA,94114,(415) 789-6258
Cafe Clementine,257 3rd St,San Francisco ,CA,94103,(415) 357-9920
Latte Express,648 4th St,San Francisco ,CA,94107,(415) 348-8898
Working Girls' Cafe,122 New Montgomery St,San Francisco ,CA,94105,(415) 537-1170
Bona Vita Cafe,1635 Divisadero St,San Francisco ,CA,94115,(415) 771-4900
Noel Martinez,4230 18th St,San Francisco ,CA,94114,(415) 525-4921
Gigi's Cafe,685 Harrison St,San Francisco ,CA,94107,(415) 882-7270
Royal Grounds,33 New Montgomery St,San Francisco ,CA,94105,(415) 356-6500
Java Gourmet,633 Folsom St,San Francisco ,CA,94107,(415) 495-8200
Foundation Cafe,335 Kearny St,San Francisco ,CA,94108,(415) 781-8880
Brew Bros Cafe,1299 Pacific Ave,San Francisco ,CA,94109,(415) 655-9102
Caff Amici Espresso,155 Montgomery St,San Francisco ,CA,94104,(415) 391-3241
Eden Plaza Cafe,600 Harrison St Ste 100,San Francisco ,CA,94107,(415) 777-4709
California View Cafe,610 California St,San Francisco ,CA,94108,(415) 433-0115
Coffee Culture,225 Bush St,San Francisco ,CA,94104,(415) 788-7011
Kitty Korner Cafe,225 Bush St,San Francisco ,CA,94104,(707) 548-6103
The Plant Cafe Organic,250 Montgomery St,San Francisco ,CA,94104,(415) 757-0708
Cocoa Cafe,111 Waverly Pl,San Francisco ,CA,94108,(415) 932-6363
Ggu Student Center Cafe,40 Jessie St,San Francisco ,CA,94105,(415) 882-1662
Metacafe,128 King St,San Francisco ,CA,94107,(415) 882-7069
Panini Cafe,1457 Haight St,San Francisco ,CA,94117,(415) 552-8057
Tomo Cafe,50 1st St Ste A,San Francisco ,CA,94105,(415) 512-9877
Bello Coffee & Tea,3000 24th St,San Francisco ,CA,94110,(415) 829-2822
Delicia Cafe 5012d,501 2nd St,San Francisco ,CA,94107,(415) 543-4444
Meta Cafe,77 Federal St,San Francisco ,CA,94107,(415) 882-7069
Tii Cafe Inc,801 Kearny St,San Francisco ,CA,94108,(415) 989-1009
Front Door Cafe,1 Front St Fl 2,San Francisco ,CA,94111,(415) 989-3244
Brannan Street Cafe,274 Brannan St,San Francisco ,CA,94107,(415) 543-6562
Cafe Metropol,2400 Polk St,San Francisco ,CA,94109,(415) 732-7778
Cafe Buon Giorno,100 Pine St Ste 102,San Francisco ,CA,94111,(415) 283-4777
El Paraiso Cafe,1198 Treat Ave,San Francisco ,CA,94110,(415) 824-2535
L'eataliano,388 Market St Ste 106,San Francisco ,CA,94111,(415) 397-0100
Russian Deli Inc,4601 Geary Blvd,San Francisco ,CA,94118,(415) 933-6295
Happy Cafe,952 Clement St,San Francisco ,CA,94118,(415) 751-8278
Dano Vietnamese Coffee,5668 3rd St,San Francisco ,CA,94124,(415) 525-3304
Quickly,1050 Taraval St,San Francisco ,CA,94116,(415) 988-1660
Trolley Caffe,1400 Taraval St,San Francisco ,CA,94116,(415) 759-8955
Park Cafe,595 Buckingham Way,San Francisco ,CA,94132,(415) 759-1898
Zephyr Caffe,3643 Balboa St,San Francisco ,CA,94121,(415) 221-6063
Javaholics Co,5700 Mission St Apt 4,San Francisco ,CA,94112,(415) 988-7251
Total Price Productions,253 Farallones St,San Francisco ,CA,94112,(415) 508-9573
Hss 121 Cafe,1600 Holloway Ave,San Francisco ,CA,94132,(415) 333-3929
Auto Row Coffee,826 Van Ness Ave,San Francisco ,CA,94109,(415) 913-7186
Horseshoe Cafe,566 Haight St,San Francisco ,CA,94117,(415) 255-7297
Circadia Coffee House,2727 Mariposa St,San Francisco ,CA,94110,(415) 552-2649
Ritual Coffee Roasters,2299 Market St,San Francisco ,CA,94114,(415) 400-5036
Nespresso USA Inc,9 Grant Ave,San Francisco ,CA,94108,(415) 249-0928
6 Degrees Cafe,199 New Montgomery St,San Francisco ,CA,94105,(415) 538-7887
Cup A Joe Coffeehouse,1901 Hayes St,San Francisco ,CA,94117,(415) 221-8700
Tully's Coffee,3966 24th St,San Francisco ,CA,94114,(415) 550-7416
Tully's Coffee,100 California St,San Francisco ,CA,94111,(415) 296-0851
Wooden Coffee Shop,862 Cole St,San Francisco ,CA,94117,(415) 742-4887
Maui Wowi,39 Pier Ste H1,San Francisco ,CA,94133,(415) 986-4785
Cafe Sadko,2229 Clement St,San Francisco ,CA,94121,(415) 666-3420
Zodiac Coffee & Tea,4653 Mission St,San Francisco ,CA,94112,(415) 769-5557
Andytown SF,3629 Taraval St,San Francisco ,CA,94116,(415) 571-8052
My Corner Cafe Inc,500 Van Ness Ave,San Francisco ,CA,94102,(415) 550-2382
Agesong Forget Me Not Cafe,602 Hayes St,San Francisco ,CA,94102,(415) 861-1381
Mocha's Cafe,455 Golden Gate Ave,San Francisco ,CA,94102,(415) 777-1167
Dolce & Salato,1145 Market St Fl Grnd,San Francisco ,CA,94103,(415) 626-2346
Cafe Trinity,1145 Market St Fl 12,San Francisco ,CA,94103,(415) 431-4010
Cafe Regent 1,450 Golden Gate Ave,San Francisco ,CA,94102,(415) 522-0125
Stateside,587 15th Ave,San Francisco ,CA,94118,(510) 208-3132
Giant Scoop Cafe,2708 San Bruno Ave,San Francisco ,CA,94134,(415) 467-5051
Wonderful Dessert and Cafe,2035 Irving St,San Francisco ,CA,94122,(415) 731-6889
Bazaar Cafe,5927 California St,San Francisco ,CA,94121,(415) 831-5620
My Favorite Cafe,2110 Clement St,San Francisco ,CA,94121,(415) 387-6688
S F Quickly Inc,2250 Irving St,San Francisco ,CA,94122,(415) 682-8599
Guddu De Karahi,1501 Noriega St,San Francisco ,CA,94122,(415) 759-9088
Crissy Field Warming Huts Bookstore & Cafe,983 Marine Dr,San Francisco ,CA,94129,(415) 561-3040
Granada Cafe,4753 Mission St,San Francisco ,CA,94112,(415) 586-1515
Mama Art Cafe,4754 Mission St,San Francisco ,CA,94112,(415) 586-8453
Irving Cafe & Deli Too,4845 Mission St,San Francisco ,CA,94112,(415) 586-1683
Specialtys Cafe,1430 29th Ave,San Francisco ,CA,94122,(415) 566-8749
Lin's Cafe,4935 Mission St,San Francisco ,CA,94112,(415) 333-3619
Cafe Express,2275 San Jose Ave,San Francisco ,CA,94112,(415) 239-8737
Nina Claire's Cafe,2275 San Jose Ave,San Francisco ,CA,94112,(415) 988-7349
Magdy's Cafe,2960 Clement St,San Francisco ,CA,94121,(415) 379-4621
Tea Me,1125 Ocean Ave,San Francisco ,CA,94112,(415) 333-3771
Super Cue Cafe,1330 Ocean Ave,San Francisco ,CA,94112,(415) 349-4407
King's Cafe,1552 Ocean Ave,San Francisco ,CA,94112,(415) 333-9088
Lucky Ocean Cafe,1501 Ocean Ave,San Francisco ,CA,94112,(415) 337-8686
Nor-Cal Herbal Relief Ctr,1545 Ocean Ave,San Francisco ,CA,94112,(415) 859-5167
E M Cafe,2407 Ocean Ave,San Francisco ,CA,94127,(415) 586-2752
Sultaneh Cafe,1217 Geneva Ave,San Francisco ,CA,94112,(415) 333-3744
Greenhouse Cafe Parkside,1722 Taraval St,San Francisco ,CA,94116,(415) 829-9174
Cafe Reina,51 Cambon Dr,San Francisco ,CA,94132,(415) 587-2233
Yonkers Cafe,3815 Noriega St,San Francisco ,CA,94122,(415) 379-4459
TJ Cafe,724 La Playa St,San Francisco ,CA,94121,(415) 702-6286
Lori's Diner,San Francisco International Airport Terminal 3 780 S Airport Blvd,San Francisco ,CA,94128,(650) 821-0500
